[{"OBJECT_NAME":"ONEWEB-0371","OBJECT_ID":"2021-090U","EPOCH":"2026-06-08T04:01:25.543200","MEAN_MOTION":13.19723815,"ECCENTRICITY":0.0001786,"INCLINATION":87.917,"RA_OF_ASC_NODE":306.7634,"ARG_OF_PERICENTER":100.251,"MEAN_ANOMALY":259.8824,"EPHEMERIS_TYPE":0,"CLASSIFICATION_TYPE":"U","NORAD_CAT_ID":49297,"ELEMENT_SET_NO":999,"REV_AT_EPOCH":22526,"BSTAR":-9.0037e-05,"MEAN_MOTION_DOT":-2.3e-07,"MEAN_MOTION_DDOT":0.0},{"OBJECT_NAME":"ONEWEB-0372","OBJECT_ID":"2021-090V","EPOCH":"2026-06-08T01:42:45.504864","MEAN_MOTION":13.20770808,"ECCENTRICITY":0.0001979,"INCLINATION":87.9189,"RA_OF_ASC_NODE":276.2585,"ARG_OF_PERICENTER":100.7989,"MEAN_ANOMALY":259.3367,"EPHEMERIS_TYPE":0,"CLASSIFICATION_TYPE":"U","NORAD_CAT_ID":49298,"ELEMENT_SET_NO":999,"REV_AT_EPOCH":22863,"BSTAR":-9.2928e-05,"MEAN_MOTION_DOT":-2.5e-07,"MEAN_MOTION_DDOT":0.0},{"OBJECT_NAME":"ONEWEB-0373","OBJECT_ID":"2021-090W","EPOCH":"2026-06-08T05:57:30.513312","MEAN_MOTION":13.20771296,"ECCENTRICITY":0.0002042,"INCLINATION":87.9189,"RA_OF_ASC_NODE":276.2237,"ARG_OF_PERICENTER":101.1478,"MEAN_ANOMALY":258.9885,"EPHEMERIS_TYPE":0,"CLASSIFICATION_TYPE":"U","NORAD_CAT_ID":49299,"ELEMENT_SET_NO":999,"REV_AT_EPOCH":22984,"BSTAR":0.00020799000000000002,"MEAN_MOTION_DOT":9.8e-07,"MEAN_MOTION_DDOT":0.0},{"OBJECT_NAME":"ONEWEB-0374","OBJECT_ID":"2021-090X","EPOCH":"2026-06-08T01:27:26.093088","MEAN_MOTION":13.14502893,"ECCENTRICITY":0.0002297,"INCLINATION":87.896,"RA_OF_ASC_NODE":291.5163,"ARG_OF_PERICENTER":87.8589,"MEAN_ANOMALY":272.2803,"EPHEMERIS_TYPE":0,"CLASSIFICATION_TYPE":"U","NORAD_CAT_ID":49300,"ELEMENT_SET_NO":999,"REV_AT_EPOCH":22636,"BSTAR":0.00033669,"MEAN_MOTION_DOT":1.38e-06,"MEAN_MOTION_DDOT":0.0},{"OBJECT_NAME":"ONEWEB-0375","OBJECT_ID":"2021-090Y","EPOCH":"2026-06-08T07:29:38.300640","MEAN_MOTION":13.20770674,"ECCENTRICITY":0.0002415,"INCLINATION":87.9192,"RA_OF_ASC_NODE":276.2024,"ARG_OF_PERICENTER":91.093,"MEAN_ANOMALY":269.048,"EPHEMERIS_TYPE":0,"CLASSIFICATION_TYPE":"U","NORAD_CAT_ID":49301,"ELEMENT_SET_NO":999,"REV_AT_EPOCH":22935,"BSTAR":-0.00019285,"MEAN_MOTION_DOT":-6.5e-07,"MEAN_MOTION_DDOT":0.0},{"OBJECT_NAME":"ONEWEB-0376","OBJECT_ID":"2021-090Z","EPOCH":"2026-06-07T22:31:37.604352","MEAN_MOTION":13.19724844,"ECCENTRICITY":0.0001624,"INCLINATION":87.9172,"RA_OF_ASC_NODE":306.8087,"ARG_OF_PERICENTER":96.5746,"MEAN_ANOMALY":263.5571,"EPHEMERIS_TYPE":0,"CLASSIFICATION_TYPE":"U","NORAD_CAT_ID":49302,"ELEMENT_SET_NO":999,"REV_AT_EPOCH":22523,"BSTAR":-6.2104e-05,"MEAN_MOTION_DOT":-1.2e-07,"MEAN_MOTION_DDOT":0.0},{"OBJECT_NAME":"ONEWEB-0377","OBJECT_ID":"2021-090AA","EPOCH":"2026-06-08T01:43:10.723296","MEAN_MOTION":13.2077209,"ECCENTRICITY":0.0002175,"INCLINATION":87.919,"RA_OF_ASC_NODE":276.2525,"ARG_OF_PERICENTER":100.282,"MEAN_ANOMALY":259.8559,"EPHEMERIS_TYPE":0,"CLASSIFICATION_TYPE":"U","NORAD_CAT_ID":49303,"ELEMENT_SET_NO":999,"REV_AT_EPOCH":22931,"BSTAR":6.892600000000001e-06,"MEAN_MOTION_DOT":1.6e-07,"MEAN_MOTION_DDOT":0.0},{"OBJECT_NAME":"ONEWEB-0378","OBJECT_ID":"2021-090AB","EPOCH":"2026-06-08T07:39:30.606336","MEAN_MOTION":13.20770106,"ECCENTRICITY":0.0002005,"INCLINATION":87.9186,"RA_OF_ASC_NODE":276.2084,"ARG_OF_PERICENTER":96.3913,"MEAN_ANOMALY":263.7448,"EPHEMERIS_TYPE":0,"CLASSIFICATION_TYPE":"U","NORAD_CAT_ID":49304,"ELEMENT_SET_NO":999,"REV_AT_EPOCH":22861,"BSTAR":0.00012529000000000002,"MEAN_MOTION_DOT":6.4e-07,"MEAN_MOTION_DDOT":0.0},{"OBJECT_NAME":"ONEWEB-0379","OBJECT_ID":"2021-090AC","EPOCH":"2026-06-08T03:10:11.181504","MEAN_MOTION":13.14501537,"ECCENTRICITY":0.0001917,"INCLINATION":87.8959,"RA_OF_ASC_NODE":291.5131,"ARG_OF_PERICENTER":95.8522,"MEAN_ANOMALY":264.2826,"EPHEMERIS_TYPE":0,"CLASSIFICATION_TYPE":"U","NORAD_CAT_ID":49305,"ELEMENT_SET_NO":999,"REV_AT_EPOCH":22637,"BSTAR":0.00035937999999999996,"MEAN_MOTION_DOT":1.46e-06,"MEAN_MOTION_DDOT":0.0},{"OBJECT_NAME":"ONEWEB-0380","OBJECT_ID":"2021-090AD","EPOCH":"2026-06-08T07:32:58.234560","MEAN_MOTION":13.19724893,"ECCENTRICITY":0.000203,"INCLINATION":87.9164,"RA_OF_ASC_NODE":306.7398,"ARG_OF_PERICENTER":97.9445,"MEAN_ANOMALY":262.1918,"EPHEMERIS_TYPE":0,"CLASSIFICATION_TYPE":"U","NORAD_CAT_ID":49306,"ELEMENT_SET_NO":999,"REV_AT_EPOCH":22525,"BSTAR":-2.9917000000000002e-05,"MEAN_MOTION_DOT":1e-08,"MEAN_MOTION_DDOT":0.0},{"OBJECT_NAME":"ONEWEB-0381","OBJECT_ID":"2021-090AE","EPOCH":"2026-06-08T01:38:07.737504","MEAN_MOTION":13.20771472,"ECCENTRICITY":0.0002146,"INCLINATION":87.9193,"RA_OF_ASC_NODE":276.2579,"ARG_OF_PERICENTER":94.5468,"MEAN_ANOMALY":265.5911,"EPHEMERIS_TYPE":0,"CLASSIFICATION_TYPE":"U","NORAD_CAT_ID":49307,"ELEMENT_SET_NO":999,"REV_AT_EPOCH":22862,"BSTAR":-4.9887e-06,"MEAN_MOTION_DOT":1.1e-07,"MEAN_MOTION_DDOT":0.0},{"OBJECT_NAME":"ONEWEB-0382","OBJECT_ID":"2021-090AF","EPOCH":"2026-06-07T18:02:20.502816","MEAN_MOTION":13.20769914,"ECCENTRICITY":0.0002063,"INCLINATION":87.9189,"RA_OF_ASC_NODE":276.3154,"ARG_OF_PERICENTER":92.5922,"MEAN_ANOMALY":267.5447,"EPHEMERIS_TYPE":0,"CLASSIFICATION_TYPE":"U","NORAD_CAT_ID":49308,"ELEMENT_SET_NO":999,"REV_AT_EPOCH":22857,"BSTAR":0.00010065000000000001,"MEAN_MOTION_DOT":5.4e-07,"MEAN_MOTION_DDOT":0.0},{"OBJECT_NAME":"ONEWEB-0383","OBJECT_ID":"2021-090AG","EPOCH":"2026-06-08T03:01:01.753536","MEAN_MOTION":13.14504194,"ECCENTRICITY":0.0001872,"INCLINATION":87.8964,"RA_OF_ASC_NODE":291.5054,"ARG_OF_PERICENTER":94.5867,"MEAN_ANOMALY":265.5477,"EPHEMERIS_TYPE":0,"CLASSIFICATION_TYPE":"U","NORAD_CAT_ID":49309,"ELEMENT_SET_NO":999,"REV_AT_EPOCH":22640,"BSTAR":0.00041937999999999996,"MEAN_MOTION_DOT":1.68e-06,"MEAN_MOTION_DDOT":0.0},{"OBJECT_NAME":"ONEWEB-0384","OBJECT_ID":"2021-090AH","EPOCH":"2026-06-07T21:24:35.885664","MEAN_MOTION":13.20811675,"ECCENTRICITY":0.0002133,"INCLINATION":87.9191,"RA_OF_ASC_NODE":276.3309,"ARG_OF_PERICENTER":87.5628,"MEAN_ANOMALY":272.5749,"EPHEMERIS_TYPE":0,"CLASSIFICATION_TYPE":"U","NORAD_CAT_ID":49310,"ELEMENT_SET_NO":999,"REV_AT_EPOCH":22860,"BSTAR":5.3276e-05,"MEAN_MOTION_DOT":3.5e-07,"MEAN_MOTION_DDOT":0.0},{"OBJECT_NAME":"ONEWEB-0385","OBJECT_ID":"2021-090AJ","EPOCH":"2026-06-07T21:30:51.669504","MEAN_MOTION":13.20772081,"ECCENTRICITY":0.0002049,"INCLINATION":87.9188,"RA_OF_ASC_NODE":276.2918,"ARG_OF_PERICENTER":94.9823,"MEAN_ANOMALY":265.1544,"EPHEMERIS_TYPE":0,"CLASSIFICATION_TYPE":"U","NORAD_CAT_ID":49311,"ELEMENT_SET_NO":999,"REV_AT_EPOCH":22857,"BSTAR":0.00028249000000000004,"MEAN_MOTION_DOT":1.28e-06,"MEAN_MOTION_DDOT":0.0},{"OBJECT_NAME":"ONEWEB-0386","OBJECT_ID":"2021-090AK","EPOCH":"2026-06-08T01:33:16.720704","MEAN_MOTION":13.20770709,"ECCENTRICITY":0.0002009,"INCLINATION":87.9194,"RA_OF_ASC_NODE":276.2488,"ARG_OF_PERICENTER":92.8914,"MEAN_ANOMALY":267.2449,"EPHEMERIS_TYPE":0,"CLASSIFICATION_TYPE":"U","NORAD_CAT_ID":49312,"ELEMENT_SET_NO":999,"REV_AT_EPOCH":22861,"BSTAR":-2.6936e-05,"MEAN_MOTION_DOT":2e-08,"MEAN_MOTION_DDOT":0.0}]