ONEWEB-0371             
1 49297U 21090U   26159.16765675 -.00000023  00000+0 -90037-4 0  9998
2 49297  87.9170 306.7634 0001786 100.2510 259.8824 13.19723815225260
ONEWEB-0372             
1 49298U 21090V   26159.07136001 -.00000025  00000+0 -92928-4 0  9997
2 49298  87.9189 276.2585 0001979 100.7989 259.3367 13.20770808228633
ONEWEB-0373             
1 49299U 21090W   26159.24826983  .00000098  00000+0  20799-3 0  9996
2 49299  87.9189 276.2237 0002042 101.1478 258.9885 13.20771296229844
ONEWEB-0374             
1 49300U 21090X   26159.06071867  .00000138  00000+0  33669-3 0  9997
2 49300  87.8960 291.5163 0002297  87.8589 272.2803 13.14502893226367
ONEWEB-0375             
1 49301U 21090Y   26159.31224885 -.00000065  00000+0 -19285-3 0  9995
2 49301  87.9192 276.2024 0002415  91.0930 269.0480 13.20770674229359
ONEWEB-0376             
1 49302U 21090Z   26158.93862968 -.00000012  00000+0 -62104-4 0  9994
2 49302  87.9172 306.8087 0001624  96.5746 263.5571 13.19724844225232
ONEWEB-0377             
1 49303U 21090AA  26159.07165189  .00000016  00000+0  68926-5 0  9993
2 49303  87.9190 276.2525 0002175 100.2820 259.8559 13.20772090229313
ONEWEB-0378             
1 49304U 21090AB  26159.31910424  .00000064  00000+0  12529-3 0  9990
2 49304  87.9186 276.2084 0002005  96.3913 263.7448 13.20770106228618
ONEWEB-0379             
1 49305U 21090AC  26159.13207386  .00000146  00000+0  35938-3 0  9997
2 49305  87.8959 291.5131 0001917  95.8522 264.2826 13.14501537226370
ONEWEB-0380             
1 49306U 21090AD  26159.31456290  .00000001  00000+0 -29917-4 0  9990
2 49306  87.9164 306.7398 0002030  97.9445 262.1918 13.19724893225250
ONEWEB-0381             
1 49307U 21090AE  26159.06814511  .00000011  00000+0 -49887-5 0  9997
2 49307  87.9193 276.2579 0002146  94.5468 265.5911 13.20771472228622
ONEWEB-0382             
1 49308U 21090AF  26158.75162619  .00000054  00000+0  10065-3 0  9998
2 49308  87.9189 276.3154 0002063  92.5922 267.5447 13.20769914228577
ONEWEB-0383             
1 49309U 21090AG  26159.12571474  .00000168  00000+0  41938-3 0  9993
2 49309  87.8964 291.5054 0001872  94.5867 265.5477 13.14504194226404
ONEWEB-0384             
1 49310U 21090AH  26158.89208201  .00000035  00000+0  53276-4 0  9995
2 49310  87.9191 276.3309 0002133  87.5628 272.5749 13.20811675228607
ONEWEB-0385             
1 49311U 21090AJ  26158.89643136  .00000128  00000+0  28249-3 0  9990
2 49311  87.9188 276.2918 0002049  94.9823 265.1544 13.20772081228578
ONEWEB-0386             
1 49312U 21090AK  26159.06477686  .00000002  00000+0 -26936-4 0  9990
2 49312  87.9194 276.2488 0002009  92.8914 267.2449 13.20770709228619
